{"type": "FeatureCollection", "features": [ {"type": "Feature", "properties": {"norad_id": 35111, "name": "FENGYUN 1C DEB", "group": "fengyun-1c-debris", "lat": 47.55337887007865, "lon": -109.97254629932999, "alt_km": 855.7237099000904, "timestamp": "2025-12-07T03:52:32.784825+00:00", "meta": {"OBJECT_NAME": "FENGYUN 1C DEB", "OBJECT_ID": "1999-025DKP", "EPOCH": "2025-12-05T12:06:31.003200", "MEAN_MOTION": 14.10949301, "ECCENTRICITY": 0.00215264, "INCLINATION": 99.4667, "RA_OF_ASC_NODE": 57.7715, "ARG_OF_PERICENTER": 240.7618, "MEAN_ANOMALY": 119.1399, "EPHEMERIS_TYPE": 0, "CLASSIFICATION_TYPE": "U", "NORAD_CAT_ID": 35111, "ELEMENT_SET_NO": 999, "REV_AT_EPOCH": 64042, "BSTAR": 0.00080865112, "MEAN_MOTION_DOT": 1.406e-05, "MEAN_MOTION_DDOT": 0}, "tle": {"line1": "1 35111U 99025DKP 25339.50452550  .00001406  00000+0  80865-3 0  9994", "line2": "2 35111  99.4667  57.7715 0021526 240.7618 119.1399 14.10949301640421"}}, "geometry": {"type": "Point", "coordinates": [-109.97254629932999, 47.55337887007865]}}, {"type": "Feature", "properties": {"norad_id": 35116, "name": "FENGYUN 1C DEB", "group": "fengyun-1c-debris", "lat": 80.37587540633423, "lon": -88.8154315854761, "alt_km": 763.949867982401, "timestamp": "2025-12-07T03:52:32.784835+00:00", "meta": {"OBJECT_NAME": "FENGYUN 1C DEB", "OBJECT_ID": "1999-025DKU", "EPOCH": "2025-12-06T13:57:31.845312", "MEAN_MOTION": 14.25033527, "ECCENTRICITY": 0.00589098, "INCLINATION": 98.6595, "RA_OF_ASC_NODE": 26.6227, "ARG_OF_PERICENTER": 66.5882, "MEAN_ANOMALY": 294.1477, "EPHEMERIS_TYPE": 0, "CLASSIFICATION_TYPE": "U", "NORAD_CAT_ID": 35116, "ELEMENT_SET_NO": 999, "REV_AT_EPOCH": 59872, "BSTAR": 0.0018081159, "MEAN_MOTION_DOT": 4.271e-05, "MEAN_MOTION_DDOT": 0}, "tle": {"line1": "1 35116U 99025DKU 25340.58161858  .00004271  00000+0  18081-2 0  9990", "line2": "2 35116  98.6595  26.6227 0058909  66.5882 294.1477 14.25033527598728"}}, "geometry": {"type": "Point", "coordinates": [-88.8154315854761, 80.37587540633423]}}, {"type": "Feature", "properties": {"norad_id": 35121, "name": "FENGYUN 1C DEB", "group": "fengyun-1c-debris", "lat": -39.0291478640511, "lon": -148.32164383358815, "alt_km": 984.421247193105, "timestamp": "2025-12-07T03:52:32.784846+00:00", "meta": {"OBJECT_NAME": "FENGYUN 1C DEB", "OBJECT_ID": "1999-025DKZ", "EPOCH": "2025-11-23T20:23:41.984736", "MEAN_MOTION": 14.04733583, "ECCENTRICITY": 0.0157971, "INCLINATION": 98.3025, "RA_OF_ASC_NODE": 192.694, "ARG_OF_PERICENTER": 150.2058, "MEAN_ANOMALY": 210.8223, "EPHEMERIS_TYPE": 0, "CLASSIFICATION_TYPE": "U", "NORAD_CAT_ID": 35121, "ELEMENT_SET_NO": 999, "REV_AT_EPOCH": 60826, "BSTAR": 0.00039097454, "MEAN_MOTION_DOT": 6.63e-06, "MEAN_MOTION_DDOT": 0}, "tle": {"line1": "1 35121U 99025DKZ 25327.84979149  .00000663  00000+0  39097-3 0  9992", "line2": "2 35121  98.3025 192.6940 0157971 150.2058 210.8223 14.04733583608261"}}, "geometry": {"type": "Point", "coordinates": [-148.32164383358815, -39.0291478640511]}}, {"type": "Feature", "properties": {"norad_id": 35122, "name": "FENGYUN 1C DEB", "group": "fengyun-1c-debris", "lat": 53.27958532304737, "lon": -12.067165121779002, "alt_km": 849.0488142724516, "timestamp": "2025-12-07T03:52:32.784856+00:00", "meta": {"OBJECT_NAME": "FENGYUN 1C DEB", "OBJECT_ID": "1999-025DLA", "EPOCH": "2025-12-06T07:14:30.669504", "MEAN_MOTION": 14.14113631, "ECCENTRICITY": 0.00250368, "INCLINATION": 98.6724, "RA_OF_ASC_NODE": 358.9052, "ARG_OF_PERICENTER": 175.8226, "MEAN_ANOMALY": 184.3161, "EPHEMERIS_TYPE": 0, "CLASSIFICATION_TYPE": "U", "NORAD_CAT_ID": 35122, "ELEMENT_SET_NO": 999, "REV_AT_EPOCH": 63776, "BSTAR": 0.00051441164, "MEAN_MOTION_DOT": 9.4e-06, "MEAN_MOTION_DDOT": 0}, "tle": {"line1": "1 35122U 99025DLA 25340.30174386  .00000940  00000+0  51441-3 0  9994", "line2": "2 35122  98.6724 358.9052 0025036 175.8226 184.3161 14.14113631637768"}}, "geometry": {"type": "Point", "coordinates": [-12.067165121779002, 53.27958532304737]}}, {"type": "Feature", "properties": {"norad_id": 35123, "name": "FENGYUN 1C DEB", "group": "fengyun-1c-debris", "lat": 6.133210572427425, "lon": 162.64309797128146, "alt_km": 810.345312627127, "timestamp": "2025-12-07T03:52:32.784867+00:00", "meta": {"OBJECT_NAME": "FENGYUN 1C DEB", "OBJECT_ID": "1999-025DLB", "EPOCH": "2025-12-05T23:10:58.256256", "MEAN_MOTION": 14.2418948, "ECCENTRICITY": 0.0049671, "INCLINATION": 99.1223, "RA_OF_ASC_NODE": 162.3921, "ARG_OF_PERICENTER": 95.3297, "MEAN_ANOMALY": 265.355, "EPHEMERIS_TYPE": 0, "CLASSIFICATION_TYPE": "U", "NORAD_CAT_ID": 35123, "ELEMENT_SET_NO": 999, "REV_AT_EPOCH": 60977, "BSTAR": 0.00090983273, "MEAN_MOTION_DOT": 2.077e-05, "MEAN_MOTION_DDOT": 0}, "tle": {"line1": "1 35123U 99025DLB 25339.96595204  .00002077  00000+0  90983-3 0  9998", "line2": "2 35123  99.1223 162.3921 0049671  95.3297 265.3550 14.24189480609774"}}, "geometry": {"type": "Point", "coordinates": [162.64309797128146, 6.133210572427425]}}, {"type": "Feature", "properties": {"norad_id": 35125, "name": "FENGYUN 1C DEB", "group": "fengyun-1c-debris", "lat": -81.58888628453259, "lon": 70.21838265329663, "alt_km": 760.0008170510264, "timestamp": "2025-12-07T03:52:32.784877+00:00", "meta": {"OBJECT_NAME": "FENGYUN 1C DEB", "OBJECT_ID": "1999-025DLD", "EPOCH": "2025-12-02T18:42:43.848288", "MEAN_MOTION": 14.33013492, "ECCENTRICITY": 0.00523769, "INCLINATION": 98.2163, "RA_OF_ASC_NODE": 348.3348, "ARG_OF_PERICENTER": 324.6836, "MEAN_ANOMALY": 35.0884, "EPHEMERIS_TYPE": 0, "CLASSIFICATION_TYPE": "U", "NORAD_CAT_ID": 35125, "ELEMENT_SET_NO": 999, "REV_AT_EPOCH": 31139, "BSTAR": 0.0017995881, "MEAN_MOTION_DOT": 4.964e-05, "MEAN_MOTION_DDOT": 0}, "tle": {"line1": "1 35125U 99025DLD 25336.77967417  .00004964  00000+0  17996-2 0  9994", "line2": "2 35125  98.2163 348.3348 0052376 324.6836  35.0884 14.33013492311390"}}, "geometry": {"type": "Point", "coordinates": [70.21838265329663, -81.58888628453259]}}, {"type": "Feature", "properties": {"norad_id": 35130, "name": "FENGYUN 1C DEB", "group": "fengyun-1c-debris", "lat": -30.62733408320368, "lon": -169.75508885007346, "alt_km": 580.4396881663934, "timestamp": "2025-12-07T03:52:32.784887+00:00", "meta": {"OBJECT_NAME": "FENGYUN 1C DEB", "OBJECT_ID": "1999-025DLJ", "EPOCH": "2025-12-03T19:51:08.700192", "MEAN_MOTION": 14.97420249, "ECCENTRICITY": 0.0006062, "INCLINATION": 99.0324, "RA_OF_ASC_NODE": 180.9884, "ARG_OF_PERICENTER": 103.2228, "MEAN_ANOMALY": 256.9666, "EPHEMERIS_TYPE": 0, "CLASSIFICATION_TYPE": "U", "NORAD_CAT_ID": 35130, "ELEMENT_SET_NO": 999, "REV_AT_EPOCH": 64780, "BSTAR": 0.011515, "MEAN_MOTION_DOT": 0.00136513, "MEAN_MOTION_DDOT": 0}, "tle": {"line1": "1 35130U 99025DLJ 25337.82718403  .00136513  00000+0  11515-1 0  9992", "line2": "2 35130  99.0324 180.9884 0006062 103.2228 256.9666 14.97420249647808"}}, "geometry": {"type": "Point", "coordinates": [-169.75508885007346, -30.62733408320368]}}, {"type": "Feature", "properties": {"norad_id": 35135, "name": "FENGYUN 1C DEB", "group": "fengyun-1c-debris", "lat": -23.14088597881769, "lon": 166.42990837120976, "alt_km": 829.427031951459, "timestamp": "2025-12-07T03:52:32.784897+00:00", "meta": {"OBJECT_NAME": "FENGYUN 1C DEB", "OBJECT_ID": "1999-025DLP", "EPOCH": "2025-12-06T06:39:27.921600", "MEAN_MOTION": 14.22516018, "ECCENTRICITY": 0.00810833, "INCLINATION": 98.5651, "RA_OF_ASC_NODE": 349.2636, "ARG_OF_PERICENTER": 303.4126, "MEAN_ANOMALY": 55.9315, "EPHEMERIS_TYPE": 0, "CLASSIFICATION_TYPE": "U", "NORAD_CAT_ID": 35135, "ELEMENT_SET_NO": 999, "REV_AT_EPOCH": 87732, "BSTAR": 0.0008831478, "MEAN_MOTION_DOT": 1.995e-05, "MEAN_MOTION_DDOT": 0}, "tle": {"line1": "1 35135U 99025DLP 25340.27740650  .00001995  00000+0  88315-3 0  9998", "line2": "2 35135  98.5651 349.2636 0081083 303.4126  55.9315 14.22516018877320"}}, "geometry": {"type": "Point", "coordinates": [166.42990837120976, -23.14088597881769]}}, {"type": "Feature", "properties": {"norad_id": 35139, "name": "FENGYUN 1C DEB", "group": "fengyun-1c-debris", "lat": -33.273731663506204, "lon": -7.772571006214445, "alt_km": 779.5702898108148, "timestamp": "2025-12-07T03:52:32.784907+00:00", "meta": {"OBJECT_NAME": "FENGYUN 1C DEB", "OBJECT_ID": "1999-025DLT", "EPOCH": "2025-11-29T06:46:18.583392", "MEAN_MOTION": 14.21054019, "ECCENTRICITY": 0.00685814, "INCLINATION": 98.5841, "RA_OF_ASC_NODE": 338.8823, "ARG_OF_PERICENTER": 336.9878, "MEAN_ANOMALY": 22.8231, "EPHEMERIS_TYPE": 0, "CLASSIFICATION_TYPE": "U", "NORAD_CAT_ID": 35139, "ELEMENT_SET_NO": 999, "REV_AT_EPOCH": 63962, "BSTAR": 0.00042081079, "MEAN_MOTION_DOT": 8.92e-06, "MEAN_MOTION_DDOT": 0}, "tle": {"line1": "1 35139U 99025DLT 25333.28215953  .00000892  00000+0  42081-3 0  9993", "line2": "2 35139  98.5841 338.8823 0068581 336.9878  22.8231 14.21054019639626"}}, "geometry": {"type": "Point", "coordinates": [-7.772571006214445, -33.273731663506204]}}, {"type": "Feature", "properties": {"norad_id": 35140, "name": "FENGYUN 1C DEB", "group": "fengyun-1c-debris", "lat": 51.11858209565695, "lon": -47.847480997594644, "alt_km": 735.8119723278069, "timestamp": "2025-12-07T03:52:32.784917+00:00", "meta": {"OBJECT_NAME": "FENGYUN 1C DEB", "OBJECT_ID": "1999-025DLU", "EPOCH": "2025-12-05T16:09:48.785184", "MEAN_MOTION": 14.21327094, "ECCENTRICITY": 0.02911055, "INCLINATION": 98.4451, "RA_OF_ASC_NODE": 321.3439, "ARG_OF_PERICENTER": 347.2809, "MEAN_ANOMALY": 12.1132, "EPHEMERIS_TYPE": 0, "CLASSIFICATION_TYPE": "U", "NORAD_CAT_ID": 35140, "ELEMENT_SET_NO": 999, "REV_AT_EPOCH": 87178, "BSTAR": 0.00044813741, "MEAN_MOTION_DOT": 1.453e-05, "MEAN_MOTION_DDOT": 0}, "tle": {"line1": "1 35140U 99025DLU 25339.67348131  .00001453  00000+0  44814-3 0  9999", "line2": "2 35140  98.4451 321.3439 0291105 347.2809  12.1132 14.21327094871786"}}, "geometry": {"type": "Point", "coordinates": [-47.847480997594644, 51.11858209565695]}}]}